OBJECT_NAME,OBJECT_ID,EPOCH,MEAN_MOTION,ECCENTRICITY,INCLINATION,RA_OF_ASC_NODE,ARG_OF_PERICENTER,MEAN_ANOMALY,EPHEMERIS_TYPE,CLASSIFICATION_TYPE,NORAD_CAT_ID,ELEMENT_SET_NO,REV_AT_EPOCH,BSTAR,MEAN_MOTION_DOT,MEAN_MOTION_DDOT
SUOMI NPP,2011-061A,2026-06-17T23:23:52.914336,14.19517523,.00014898,98.7953,109.8456,4.8423,355.2767,0,U,37849,999,75855,.45835296E-4,.52E-6,0
YAOGAN-12,2011-066B,2026-06-17T22:06:34.028352,15.26606581,.00087588,97.1136,207.4548,213.8710,146.1971,0,U,37875,999,81215,.1637594E-3,.4223E-4,0
BEIDOU-2 M4,2012-018B,2026-06-16T14:00:59.327136,1.86229375,.00112916,55.6586,304.1100,275.7806,84.0759,0,U,38251,999,9593,0,-.71E-6,0
ARIRANG-3 (KOMPSAT-3),2012-025B,2026-06-17T22:08:07.418112,14.62206765,.00066946,98.1171,126.3696,107.5282,252.6651,0,U,38338,999,75145,.7734772E-4,.343E-5,0
METOP-B,2012-049A,2026-06-17T21:26:41.690976,14.21432898,.0002195,98.6504,220.3787,17.9345,342.1910,0,U,38771,999,71336,.56227467E-4,.8E-6,0
SJ-9A,2012-056A,2026-06-17T21:43:47.875008,14.85479634,.00240079,97.6709,140.8309,254.1633,105.6936,0,U,38860,999,69969,.94545841E-4,.767E-5,0
COSMOS 2484 (RODNIK-S 6),2013-001C,2026-06-17T22:49:27.491232,12.42939465,.00268556,82.5011,221.4178,34.9945,325.2893,0,U,39059,999,60865,.52009905E-3,.82E-6,0
SARAL,2013-009A,2026-06-17T22:46:08.651136,14.32856147,.00006833,98.5557,355.5062,303.9623,56.1497,0,U,39086,999,69571,.40037995E-4,.65E-6,0
STRAND-1,2013-009E,2026-06-17T09:41:55.726080,14.37163347,.00077409,98.3921,348.6331,224.5374,135.5192,0,U,39090,999,69709,.81522644E-4,.2E-5,0
BRITE-AUSTRIA,2013-009F,2026-06-17T10:00:36.259776,14.36542205,.00091616,98.3994,347.8470,235.6981,124.3339,0,U,39091,999,69708,.59166614E-4,.131E-5,0
GAOFEN-1,2013-018A,2026-06-17T22:39:19.949760,14.76535421,.00156857,97.9097,240.9963,263.8797,96.0626,0,U,39150,999,70835,-.2400287E-5,-.68E-6,0
NEE-01 PEGASO,2013-018B,2026-06-17T20:50:40.584192,14.93662673,.00131714,98.1224,313.0406,157.1333,203.0475,0,U,39151,999,71080,.223425E-3,.2303E-4,0
PROBA-V,2013-021A,2026-06-17T21:24:53.684064,14.23597058,.00051664,98.3584,147.4641,121.7820,238.3863,0,U,39159,999,68121,.3636394E-4,.42E-6,0
ARIRANG-5 (KOMPSAT-5),2013-042A,2026-06-17T23:08:28.093920,15.04494772,.00053988,97.6200,355.6539,117.9393,242.2380,0,U,39227,999,70397,.6983967E-4,.917E-5,0
GONETS-M 5,2013-048A,2026-06-17T22:04:37.727040,12.42891876,.00161207,82.4826,342.9250,208.7070,151.3124,0,U,39249,999,57897,.61583241E-4,.18E-6,0
GONETS-M 7,2013-048C,2026-06-17T23:07:10.929216,12.42914796,.00168937,82.4893,345.8207,210.0225,149.9888,0,U,39251,999,57893,.20531277E-3,.38E-6,0
FENGYUN 3C,2013-052A,2026-06-17T23:06:06.054912,14.15755172,.00152178,98.4987,142.8018,25.4787,334.7135,0,U,39260,999,65867,.5332172E-4,.63E-6,0
CASSIOPE,2013-055A,2026-06-17T19:38:02.557824,15.25243540,.02925359,80.9141,65.9560,60.3279,302.6736,0,U,39265,999,66776,.47992747E-3,.44002E-3,-.509215E-6
APRIZESAT 7,2013-066A,2026-06-17T19:47:43.801728,14.91565344,.00350477,97.7709,122.0355,207.1269,152.8120,0,U,39416,999,68132,.10410797E-3,.998E-5,0
ZACUBE-1 (TSHEPISOSAT),2013-066B,2026-06-17T22:34:21.790272,15.01192546,.00408986,97.8077,131.2813,245.0967,114.6003,0,U,39417,999,68084,.19407126E-3,.2469E-4,0
APRIZESAT 8,2013-066K,2026-06-17T19:32:14.845344,14.87653721,.00444161,97.8220,116.2732,284.4333,75.1956,0,U,39425,999,67976,.88832234E-4,.765E-5,0
