SUOMI NPP               
1 37849U 11061A   26168.97491799  .00000052  00000+0  45835-4 0  9993
2 37849  98.7953 109.8456 0001489   4.8423 355.2767 14.19517523758553
YAOGAN-12               
1 37875U 11066B   26168.92122718  .00004223  00000+0  16376-3 0  9995
2 37875  97.1136 207.4548 0008758 213.8710 146.1971 15.26606581812155
BEIDOU-2 M4             
1 38251U 12018B   26167.58401999 -.00000071  00000+0  00000+0 0  9995
2 38251  55.6586 304.1100 0011291 275.7806  84.0759  1.86229375 95936
ARIRANG-3 (KOMPSAT-3)   
1 38338U 12025B   26168.92230808  .00000343  00000+0  77348-4 0  9992
2 38338  98.1171 126.3696 0006694 107.5282 252.6651 14.62206765751455
METOP-B                 
1 38771U 12049A   26168.89353809  .00000080  00000+0  56227-4 0  9993
2 38771  98.6504 220.3787 0002195  17.9345 342.1910 14.21432898713367
SJ-9A                   
1 38860U 12056A   26168.90541522  .00000767  00000+0  94546-4 0  9991
2 38860  97.6709 140.8309 0024007 254.1633 105.6936 14.85479634699697
COSMOS 2484 (RODNIK-S 6)
1 39059U 13001C   26168.95101263  .00000082  00000+0  52010-3 0  9991
2 39059  82.5011 221.4178 0026855  34.9945 325.2893 12.42939465608652
SARAL                   
1 39086U 13009A   26168.94871124  .00000065  00000+0  40038-4 0  9997
2 39086  98.5557 355.5062 0000683 303.9623  56.1497 14.32856147695717
STRAND-1                
1 39090U 13009E   26168.40411720  .00000200  00000+0  81523-4 0  9990
2 39090  98.3921 348.6331 0007740 224.5374 135.5192 14.37163347697094
BRITE-AUSTRIA           
1 39091U 13009F   26168.41708634  .00000131  00000+0  59167-4 0  9997
2 39091  98.3994 347.8470 0009161 235.6981 124.3339 14.36542205697087
GAOFEN-1                
1 39150U 13018A   26168.94398090 -.00000068  00000+0 -24003-5 0  9995
2 39150  97.9097 240.9963 0015685 263.8797  96.0626 14.76535421708351
NEE-01 PEGASO           
1 39151U 13018B   26168.86852528  .00002303  00000+0  22343-3 0  9993
2 39151  98.1224 313.0406 0013171 157.1333 203.0475 14.93662673710804
PROBA-V                 
1 39159U 13021A   26168.89228801  .00000042  00000+0  36364-4 0  9996
2 39159  98.3584 147.4641 0005166 121.7820 238.3863 14.23597058681217
ARIRANG-5 (KOMPSAT-5)   
1 39227U 13042A   26168.96421405  .00000917  00000+0  69840-4 0  9994
2 39227  97.6200 355.6539 0005398 117.9393 242.2380 15.04494772703973
GONETS-M 5              
1 39249U 13048A   26168.91988110  .00000018  00000+0  61583-4 0  9998
2 39249  82.4826 342.9250 0016120 208.7070 151.3124 12.42891876578979
GONETS-M 7              
1 39251U 13048C   26168.96332094  .00000038  00000+0  20531-3 0  9999
2 39251  82.4893 345.8207 0016893 210.0225 149.9888 12.42914796578938
FENGYUN 3C              
1 39260U 13052A   26168.96257008  .00000063  00000+0  53322-4 0  9998
2 39260  98.4987 142.8018 0015217  25.4787 334.7135 14.15755172658676
CASSIOPE                
1 39265U 13055A   26168.81808516  .00044002 -50922-6  47993-3 0  9999
2 39265  80.9141  65.9560 0292535  60.3279 302.6736 15.25243540667764
APRIZESAT 7             
1 39416U 13066A   26168.82481252  .00000998  00000+0  10411-3 0  9999
2 39416  97.7709 122.0355 0035047 207.1269 152.8120 14.91565344681329
ZACUBE-1 (TSHEPISOSAT)  
1 39417U 13066B   26168.94052998  .00002469  00000+0  19407-3 0  9993
2 39417  97.8077 131.2813 0040898 245.0967 114.6003 15.01192546680840
APRIZESAT 8             
1 39425U 13066K   26168.81406071  .00000765  00000+0  88832-4 0  9999
2 39425  97.8220 116.2732 0044416 284.4333  75.1956 14.87653721679763
